STARLINK-31783          
1 59750U 24090W   24153.58334491 -.00088441  00000+0 -15168-2 0  9992
2 59750  42.9995 262.6437 0001719 282.0126 189.3644 15.50614726  4281
STARLINK-31808          
1 59751U 24090X   24153.58334491 -.00095507  00000+0 -16397-2 0  9999
2 59751  42.9995 262.6392 0001686 272.8408 200.4518 15.50618647  4286
STARLINK-31822          
1 59752U 24090Y   24153.58334491 -.00091781  00000+0 -15749-2 0  9990
2 59752  42.9994 262.6342 0001560 269.7994 205.4103 15.50616338  4287
STARLINK-11125 [DTC]    
1 59753U 24091A   24153.58334491  .00097765  00000+0  58145-3 0  9996
2 59753  53.1608 153.0276 0000579  31.4365 272.4780 15.77229778  4066
STARLINK-11118 [DTC]    
1 59754U 24091B   24153.58334491 -.00010195  00000+0 -58371-4 0  9993
2 59754  53.1605 153.0068 0000844  85.3442 228.3295 15.76728848  4020
STARLINK-11132 [DTC]    
1 59755U 24091C   24153.58334491 -.00016375  00000+0 -96210-4 0  9994
2 59755  53.1606 152.9832 0001178  81.4114 243.7126 15.76736300  4052
STARLINK-11131 [DTC]    
1 59756U 24091D   24153.58334491 -.00028597  00000+0 -17125-3 0  9991
2 59756  53.1607 152.9594 0001105  74.3083 262.2775 15.76737079  4033
STARLINK-11114 [DTC]    
1 59757U 24091E   24153.58334491 -.00011232  00000+0 -64749-4 0  9995
2 59757  53.1604 152.9353 0001083  80.8125 267.2487 15.76718976  3970
STARLINK-11105 [DTC]    
1 59758U 24091F   24153.58334491 -.00004108  00000+0 -21117-4 0  9992
2 59758  53.1604 152.9116 0001078  73.9617 285.5405 15.76728623  3974
STARLINK-11097 [DTC]    
1 59759U 24091G   24153.58334491 -.00042182  00000+0 -25454-3 0  9994
2 59759  53.1601 152.8878 0001262  89.5949 281.3145 15.76768883  4059
STARLINK-11098 [DTC]    
1 59760U 24091H   24153.58334491 -.00019555  00000+0 -11571-3 0  9999
2 59760  53.1600 152.8640 0000881  73.9351 308.4843 15.76738656  3990
STARLINK-11117 [DTC]    
1 59761U 24091J   24153.58334491 -.00018410  00000+0 -10871-3 0  9991
2 59761  53.1599 152.8402 0001098  78.0622 315.8294 15.76731867  4037
STARLINK-11110 [DTC]    
1 59762U 24091K   24153.58334491 -.00080788  00000+0 -49303-3 0  9991
2 59762  53.1595 152.8156 0001435  87.5370 318.1162 15.76785325  4038
STARLINK-11104 [DTC]    
1 59763U 24091L   24153.58334491 -.00028848  00000+0 -17278-3 0  9997
2 59763  53.1595 152.7925 0001401  66.0839 350.7177 15.76737517  4057
STARLINK-11111 [DTC]    
1 59764U 24091M   24153.58334491 -.00031931  00000+0 -19175-3 0  9993
2 59764  53.1587 152.7448 0001149  83.4877 356.2341 15.76737446  4036
STARLINK-11106 [DTC]    
1 59765U 24091N   24153.58334491 -.00017276  00000+0 -10174-3 0  9990
2 59765  53.1593 152.7687 0001105  86.5904 341.6678 15.76735593  4038
STARLINK-31739          
1 59766U 24091P   24153.58334491 -.00357082  00000+0 -26277-2 0  9993
2 59766  53.1593 152.9711 0000961  78.6194 249.7913 15.73390257  3963
STARLINK-31828          
1 59767U 24091Q   24153.58334491 -.00395625  00000+0 -29251-2 0  9994
2 59767  53.1590 152.9851 0000556 132.1570 189.5816 15.73391446  3795
STARLINK-31826          
1 59768U 24091R   24153.58334491 -.00167718  00000+0 -12107-2 0  9997
2 59768  53.1590 152.9946 0001937 149.7226 167.5867 15.73269732  4040
STARLINK-31830          
1 59769U 24091S   24153.58334491 -.00014205  00000+0 -96906-4 0  9991
2 59769  53.1593 152.9761 0001519  29.6173 296.5961 15.73210484  3791
STARLINK-31829          
1 59770U 24091T   24153.58334491 -.00310227  00000+0 -22723-2 0  9990
2 59770  53.1592 152.9904 0001152  52.2189 267.2735 15.73363657  3776
STARLINK-31786          
1 59771U 24091U   24153.58334491 -.00358625  00000+0 -26405-2 0  9996
2 59771  53.1593 152.9794 0000054  75.3088 249.4436 15.73385249  3961
STARLINK-31835          
1 59772U 24091V   24153.58334491 -.00310369  00000+0 -22743-2 0  9991
2 59772  53.1594 152.9668 0001209  28.4139 302.2526 15.73353976  3782
COSMOS 2576             
1 59773U 24092A   24153.59003782  .00030295  00000+0  70726-3 0  9990
2 59773  97.2393 265.6683 0012466 190.5032 169.5957 15.42073504  2411
2024-092B               
1 59774U 24092B   24149.57744983  .00008820  00000+0  56271-3 0  9997
2 59774  97.5903 261.6290 0011332 263.0457 237.4881 15.08878414  1729
2024-092C               
1 59775U 24092C   24149.57432837  .00008943  00000+0  56793-3 0  9995
2 59775  97.6009 261.6592 0011496 266.8627 223.4631 15.09044328  1733
2024-092D               
1 59776U 24092D   24149.57183071  .00012190  00000+0  79857-3 0  9994
2 59776  97.5987 261.6228 0011833 233.9388 191.1731 15.07809631  1734
2024-092E               
1 59777U 24092E   24149.57207609  .00010859  00000+0  71195-3 0  9996
2 59777  97.5982 261.6229 0011864 236.8469 190.0417 15.07808528  1730
2024-092F               
1 59778U 24092F   24153.42445238  .00007544  00000+0  49455-3 0  9999
2 59778  97.5954 265.4298 0012842 226.5177 221.6858 15.07912883  2312
2024-092G               
1 59779U 24092G   24149.20895931  .00000177  00000+0  83993-4 0  9991
2 59779  98.6074 261.2899 0010940 252.7240 221.1092 14.31071867  1596
