OBJECT_NAME,OBJECT_ID,EPOCH,MEAN_MOTION,ECCENTRICITY,INCLINATION,RA_OF_ASC_NODE,ARG_OF_PERICENTER,MEAN_ANOMALY,EPHEMERIS_TYPE,CLASSIFICATION_TYPE,NORAD_CAT_ID,ELEMENT_SET_NO,REV_AT_EPOCH,BSTAR,MEAN_MOTION_DOT,MEAN_MOTION_DDOT
STARLINK-31783,2024-090W,2024-06-01T14:00:01.000224,15.50614726,0.0001719,42.9995,262.6437,282.0126,189.3644,0,U,59750,999,428,-0.0015168,-0.00088441,0
STARLINK-31808,2024-090X,2024-06-01T14:00:01.000224,15.50618647,0.0001686,42.9995,262.6392,272.8408,200.4518,0,U,59751,999,428,-0.0016397,-0.00095507,0
STARLINK-31822,2024-090Y,2024-06-01T14:00:01.000224,15.50616338,0.000156,42.9994,262.6342,269.7994,205.4103,0,U,59752,999,428,-0.0015749,-0.00091781,0
STARLINK-11125 [DTC],2024-091A,2024-06-01T14:00:01.000224,15.77229778,5.79e-05,53.1608,153.0276,31.4365,272.478,0,U,59753,999,406,0.00058145,0.00097765,0
STARLINK-11118 [DTC],2024-091B,2024-06-01T14:00:01.000224,15.76728848,8.44e-05,53.1605,153.0068,85.3442,228.3295,0,U,59754,999,402,-5.8371e-05,-0.00010195,0
STARLINK-11132 [DTC],2024-091C,2024-06-01T14:00:01.000224,15.767363,0.0001178,53.1606,152.9832,81.4114,243.7126,0,U,59755,999,405,-9.621e-05,-0.00016375,0
STARLINK-11131 [DTC],2024-091D,2024-06-01T14:00:01.000224,15.76737079,0.0001105,53.1607,152.9594,74.3083,262.2775,0,U,59756,999,403,-0.00017125,-0.00028597,0
STARLINK-11114 [DTC],2024-091E,2024-06-01T14:00:01.000224,15.76718976,0.0001083,53.1604,152.9353,80.8125,267.2487,0,U,59757,999,397,-6.4749e-05,-0.00011232,0
STARLINK-11105 [DTC],2024-091F,2024-06-01T14:00:01.000224,15.76728623,0.0001078,53.1604,152.9116,73.9617,285.5405,0,U,59758,999,397,-2.1117e-05,-4.108e-05,0
STARLINK-11097 [DTC],2024-091G,2024-06-01T14:00:01.000224,15.76768883,0.0001262,53.1601,152.8878,89.5949,281.3145,0,U,59759,999,405,-0.00025454,-0.00042182,0
STARLINK-11098 [DTC],2024-091H,2024-06-01T14:00:01.000224,15.76738656,8.81e-05,53.16,152.864,73.9351,308.4843,0,U,59760,999,399,-0.00011571,-0.00019555,0
STARLINK-11117 [DTC],2024-091J,2024-06-01T14:00:01.000224,15.76731867,0.0001098,53.1599,152.8402,78.0622,315.8294,0,U,59761,999,403,-0.00010871,-0.0001841,0
STARLINK-11110 [DTC],2024-091K,2024-06-01T14:00:01.000224,15.76785325,0.0001435,53.1595,152.8156,87.537,318.1162,0,U,59762,999,403,-0.00049303,-0.00080788,0
STARLINK-11104 [DTC],2024-091L,2024-06-01T14:00:01.000224,15.76737517,0.0001401,53.1595,152.7925,66.0839,350.7177,0,U,59763,999,405,-0.00017278,-0.00028848,0
STARLINK-11111 [DTC],2024-091M,2024-06-01T14:00:01.000224,15.76737446,0.0001149,53.1587,152.7448,83.4877,356.2341,0,U,59764,999,403,-0.00019175,-0.00031931,0
STARLINK-11106 [DTC],2024-091N,2024-06-01T14:00:01.000224,15.76735593,0.0001105,53.1593,152.7687,86.5904,341.6678,0,U,59765,999,403,-0.00010174,-0.00017276,0
STARLINK-31739,2024-091P,2024-06-01T14:00:01.000224,15.73390257,9.61e-05,53.1593,152.9711,78.6194,249.7913,0,U,59766,999,396,-0.0026277,-0.00357082,0
STARLINK-31828,2024-091Q,2024-06-01T14:00:01.000224,15.73391446,5.56e-05,53.159,152.9851,132.157,189.5816,0,U,59767,999,379,-0.0029251,-0.00395625,0
STARLINK-31826,2024-091R,2024-06-01T14:00:01.000224,15.73269732,0.0001937,53.159,152.9946,149.7226,167.5867,0,U,59768,999,404,-0.0012107,-0.00167718,0
STARLINK-31830,2024-091S,2024-06-01T14:00:01.000224,15.73210484,0.0001519,53.1593,152.9761,29.6173,296.5961,0,U,59769,999,379,-9.6906e-05,-0.00014205,0
STARLINK-31829,2024-091T,2024-06-01T14:00:01.000224,15.73363657,0.0001152,53.1592,152.9904,52.2189,267.2735,0,U,59770,999,377,-0.0022723,-0.00310227,0
STARLINK-31786,2024-091U,2024-06-01T14:00:01.000224,15.73385249,5.4e-06,53.1593,152.9794,75.3088,249.4436,0,U,59771,999,396,-0.0026405,-0.00358625,0
STARLINK-31835,2024-091V,2024-06-01T14:00:01.000224,15.73353976,0.0001209,53.1594,152.9668,28.4139,302.2526,0,U,59772,999,378,-0.0022743,-0.00310369,0
COSMOS 2576,2024-092A,2024-06-01T14:09:39.267648,15.42073504,0.0012466,97.2393,265.6683,190.5032,169.5957,0,U,59773,999,241,0.00070726,0.00030295,0
2024-092B,2024-092B,2024-05-28T13:51:31.665312,15.08878414,0.0011332,97.5903,261.629,263.0457,237.4881,0,U,59774,999,172,0.00056271,8.82e-05,0
2024-092C,2024-092C,2024-05-28T13:47:01.971168,15.09044328,0.0011496,97.6009,261.6592,266.8627,223.4631,0,U,59775,999,173,0.00056793,8.943e-05,0
2024-092D,2024-092D,2024-05-28T13:43:26.173344,15.07809631,0.0011833,97.5987,261.6228,233.9388,191.1731,0,U,59776,999,173,0.00079857,0.0001219,0
2024-092E,2024-092E,2024-05-28T13:43:47.374176,15.07808528,0.0011864,97.5982,261.6229,236.8469,190.0417,0,U,59777,999,173,0.00071195,0.00010859,0
2024-092F,2024-092F,2024-06-01T10:11:12.685632,15.07912883,0.0012842,97.5954,265.4298,226.5177,221.6858,0,U,59778,999,231,0.00049455,7.544e-05,0
2024-092G,2024-092G,2024-05-28T05:00:54.084384,14.31071867,0.001094,98.6074,261.2899,252.724,221.1092,0,U,59779,999,159,8.3993e-05,1.77e-06,0
